{
  "type": "FeatureCollection",
  "features": [
    {
      "type": "Feature",
      "properties": {
        "norad_id": 66843,
        "name": "STARLINK-35997",
        "group": "last-30-days",
        "lat": 11.939946520635143,
        "lon": 162.7378678421672,
        "alt_km": 410.6182147351583,
        "timestamp": "2025-12-27T08:36:17.078483+00:00",
        "meta_object_name": "STARLINK-35997",
        "meta_object_id": "2025-280Y",
        "meta_epoch": "2025-12-27T04:00:01.998720",
        "meta_mean_motion": 15.52520774,
        "meta_eccentricity": 0.0003382,
        "meta_inclination": 70.0007,
        "meta_ra_of_asc_node": 158.8459,
        "meta_arg_of_pericenter": 273.1652,
        "meta_mean_anomaly": 107.7414,
        "meta_ephemeris_type": 0,
        "meta_classification_type": "U",
        "meta_norad_cat_id": 66843,
        "meta_element_set_no": 999,
        "meta_rev_at_epoch": 521,
        "meta_bstar": -0.00081458,
        "meta_mean_motion_dot": -0.00049971,
        "meta_mean_motion_ddot": 0,
        "tle_line1": "1 66843U 25280Y   25361.16668980 -.00049971  00000+0 -81458-3 0  9995",
        "tle_line2": "2 66843  70.0007 158.8459 0003382 273.1652 107.7414 15.52520774  5215"
      },
      "geometry": {
        "type": "Point",
        "coordinates": [
          162.7378678421672,
          11.939946520635143
        ]
      }
    },
    {
      "type": "Feature",
      "properties": {
        "norad_id": 66844,
        "name": "STARLINK-36073",
        "group": "last-30-days",
        "lat": 14.014439746054594,
        "lon": 163.53517891526724,
        "alt_km": 401.276819207048,
        "timestamp": "2025-12-27T08:36:17.078495+00:00",
        "meta_object_name": "STARLINK-36073",
        "meta_object_id": "2025-280Z",
        "meta_epoch": "2025-12-27T02:21:53.576928",
        "meta_mean_motion": 15.54595499,
        "meta_eccentricity": 0.0005892,
        "meta_inclination": 70.0006,
        "meta_ra_of_asc_node": 159.0337,
        "meta_arg_of_pericenter": 296.8217,
        "meta_mean_anomaly": 63.2368,
        "meta_ephemeris_type": 0,
        "meta_classification_type": "U",
        "meta_norad_cat_id": 66844,
        "meta_element_set_no": 999,
        "meta_rev_at_epoch": 513,
        "meta_bstar": 0.017679,
        "meta_mean_motion_dot": 0.01296652,
        "meta_mean_motion_ddot": 0,
        "tle_line1": "1 66844U 25280Z   25361.09853677  .01296652  00000+0  17679-1 0  9998",
        "tle_line2": "2 66844  70.0006 159.0337 0005892 296.8217  63.2368 15.54595499  5133"
      },
      "geometry": {
        "type": "Point",
        "coordinates": [
          163.53517891526724,
          14.014439746054594
        ]
      }
    },
    {
      "type": "Feature",
      "properties": {
        "norad_id": 66845,
        "name": "STARLINK-36068",
        "group": "last-30-days",
        "lat": 17.36018439859625,
        "lon": 164.8515754002649,
        "alt_km": 409.6666362118367,
        "timestamp": "2025-12-27T08:36:17.078506+00:00",
        "meta_object_name": "STARLINK-36068",
        "meta_object_id": "2025-280AA",
        "meta_epoch": "2025-12-27T03:53:11.311872",
        "meta_mean_motion": 15.5256967,
        "meta_eccentricity": 0.0003372,
        "meta_inclination": 70.0009,
        "meta_ra_of_asc_node": 158.852,
        "meta_arg_of_pericenter": 273.055,
        "meta_mean_anomaly": 87.0251,
        "meta_ephemeris_type": 0,
        "meta_classification_type": "U",
        "meta_norad_cat_id": 66845,
        "meta_element_set_no": 999,
        "meta_rev_at_epoch": 517,
        "meta_bstar": 0.0021463,
        "meta_mean_motion_dot": 0.00134372,
        "meta_mean_motion_ddot": 0,
        "tle_line1": "1 66845U 25280AA  25361.16193648  .00134372  00000+0  21463-2 0  9998",
        "tle_line2": "2 66845  70.0009 158.8520 0003372 273.0550  87.0251 15.52569670  5175"
      },
      "geometry": {
        "type": "Point",
        "coordinates": [
          164.8515754002649,
          17.36018439859625
        ]
      }
    },
    {
      "type": "Feature",
      "properties": {
        "norad_id": 66846,
        "name": "STARLINK-36055",
        "group": "last-30-days",
        "lat": 17.611424838490375,
        "lon": 164.95293493821382,
        "alt_km": 400.49342615122714,
        "timestamp": "2025-12-27T08:36:17.078517+00:00",
        "meta_object_name": "STARLINK-36055",
        "meta_object_id": "2025-280AB",
        "meta_epoch": "2025-12-27T02:20:54.102624",
        "meta_mean_motion": 15.54614248,
        "meta_eccentricity": 0.0005705,
        "meta_inclination": 70.0008,
        "meta_ra_of_asc_node": 159.03,
        "meta_arg_of_pericenter": 306.391,
        "meta_mean_anomaly": 53.6751,
        "meta_ephemeris_type": 0,
        "meta_classification_type": "U",
        "meta_norad_cat_id": 66846,
        "meta_element_set_no": 999,
        "meta_rev_at_epoch": 516,
        "meta_bstar": 0.015937,
        "meta_mean_motion_dot": 0.01156943,
        "meta_mean_motion_ddot": 0,
        "tle_line1": "1 66846U 25280AB  25361.09784841  .01156943  00000+0  15937-1 0  9999",
        "tle_line2": "2 66846  70.0008 159.0300 0005705 306.3910  53.6751 15.54614248  5163"
      },
      "geometry": {
        "type": "Point",
        "coordinates": [
          164.95293493821382,
          17.611424838490375
        ]
      }
    },
    {
      "type": "Feature",
      "properties": {
        "norad_id": 66847,
        "name": "STARLINK-36061",
        "group": "last-30-days",
        "lat": 15.550405024129727,
        "lon": 164.13348374874093,
        "alt_km": 410.00231648479075,
        "timestamp": "2025-12-27T08:36:17.078526+00:00",
        "meta_object_name": "STARLINK-36061",
        "meta_object_id": "2025-280AC",
        "meta_epoch": "2025-12-27T04:00:01.998720",
        "meta_mean_motion": 15.52812287,
        "meta_eccentricity": 0.0003529,
        "meta_inclination": 70.0011,
        "meta_ra_of_asc_node": 158.8419,
        "meta_arg_of_pericenter": 281.6757,
        "meta_mean_anomaly": 102.9979,
        "meta_ephemeris_type": 0,
        "meta_classification_type": "U",
        "meta_norad_cat_id": 66847,
        "meta_element_set_no": 999,
        "meta_rev_at_epoch": 516,
        "meta_bstar": -0.014782,
        "meta_mean_motion_dot": -0.00841012,
        "meta_mean_motion_ddot": 0,
        "tle_line1": "1 66847U 25280AC  25361.16668980 -.00841012  00000+0 -14782-1 0  9999",
        "tle_line2": "2 66847  70.0011 158.8419 0003529 281.6757 102.9979 15.52812287  5163"
      },
      "geometry": {
        "type": "Point",
        "coordinates": [
          164.13348374874093,
          15.550405024129727
        ]
      }
    },
    {
      "type": "Feature",
      "properties": {
        "norad_id": 66848,
        "name": "STARLINK-36091",
        "group": "last-30-days",
        "lat": 13.998461991934965,
        "lon": -161.34703952776056,
        "alt_km": 413.05246888471993,
        "timestamp": "2025-12-27T08:36:17.078536+00:00",
        "meta_object_name": "STARLINK-36091",
        "meta_object_id": "2025-281A",
        "meta_epoch": "2025-12-27T04:00:01.998720",
        "meta_mean_motion": 15.50577058,
        "meta_eccentricity": 0.0001046,
        "meta_inclination": 43.0002,
        "meta_ra_of_asc_node": 35.2927,
        "meta_arg_of_pericenter": 263.0991,
        "meta_mean_anomaly": 263.9017,
        "meta_ephemeris_type": 0,
        "meta_classification_type": "U",
        "meta_norad_cat_id": 66848,
        "meta_element_set_no": 999,
        "meta_rev_at_epoch": 370,
        "meta_bstar": -0.00075452,
        "meta_mean_motion_dot": -0.00044351,
        "meta_mean_motion_ddot": 0,
        "tle_line1": "1 66848U 25281A   25361.16668980 -.00044351  00000+0 -75452-3 0  9995",
        "tle_line2": "2 66848  43.0002  35.2927 0001046 263.0991 263.9017 15.50577058  3703"
      },
      "geometry": {
        "type": "Point",
        "coordinates": [
          -161.34703952776056,
          13.998461991934965
        ]
      }
    },
    {
      "type": "Feature",
      "properties": {
        "norad_id": 66849,
        "name": "STARLINK-36102",
        "group": "last-30-days",
        "lat": 12.735711149757698,
        "lon": -159.8715910008002,
        "alt_km": 413.1448609963045,
        "timestamp": "2025-12-27T08:36:17.078546+00:00",
        "meta_object_name": "STARLINK-36102",
        "meta_object_id": "2025-281B",
        "meta_epoch": "2025-12-27T04:00:01.998720",
        "meta_mean_motion": 15.5057289,
        "meta_eccentricity": 0.0001056,
        "meta_inclination": 43.0003,
        "meta_ra_of_asc_node": 35.2874,
        "meta_arg_of_pericenter": 256.4498,
        "meta_mean_anomaly": 272.4679,
        "meta_ephemeris_type": 0,
        "meta_classification_type": "U",
        "meta_norad_cat_id": 66849,
        "meta_element_set_no": 999,
        "meta_rev_at_epoch": 370,
        "meta_bstar": -0.00062817,
        "meta_mean_motion_dot": -0.0003701,
        "meta_mean_motion_ddot": 0,
        "tle_line1": "1 66849U 25281B   25361.16668980 -.00037010  00000+0 -62817-3 0  9991",
        "tle_line2": "2 66849  43.0003  35.2874 0001056 256.4498 272.4679 15.50572890  3703"
      },
      "geometry": {
        "type": "Point",
        "coordinates": [
          -159.8715910008002,
          12.735711149757698
        ]
      }
    }
  ]
}